{
  "type": "FeatureCollection",
  "features": [
    {
      "type": "Feature",
      "properties": {
        "norad_id": 42917,
        "name": "QZS-3 (QZSS/PRN 199)",
        "group": "gnss",
        "lat": -0.000907472439287158,
        "lon": -71.2579050947417,
        "alt_km": 35779.948680910085,
        "timestamp": "2025-12-18T04:58:34.820694+00:00",
        "meta_object_name": "QZS-3 (QZSS/PRN 199)",
        "meta_object_id": "2017-048A",
        "meta_epoch": "2025-12-17T20:46:45.234048",
        "meta_mean_motion": 1.00267333,
        "meta_eccentricity": 0.00017973,
        "meta_inclination": 0.025,
        "meta_ra_of_asc_node": 193.4979,
        "meta_arg_of_pericenter": 82.9691,
        "meta_mean_anomaly": 248.9948,
        "meta_ephemeris_type": 0,
        "meta_classification_type": "U",
        "meta_norad_cat_id": 42917,
        "meta_element_set_no": 999,
        "meta_rev_at_epoch": 3044,
        "meta_bstar": 0,
        "meta_mean_motion_dot": 0,
        "meta_mean_motion_ddot": 0,
        "tle_line1": "1 42917U 17048A   25351.86580132  .00000000  00000+0  00000+0 0  9990",
        "tle_line2": "2 42917   0.0250 193.4979 0001797  82.9691 248.9948  1.00267333 30443"
      },
      "geometry": {
        "type": "Point",
        "coordinates": [
          -71.2579050947417,
          -0.000907472439287158
        ]
      }
    },
    {
      "type": "Feature",
      "properties": {
        "norad_id": 42939,
        "name": "COSMOS 2522 (752)",
        "group": "gnss",
        "lat": 11.287033867131546,
        "lon": 12.47420403348192,
        "alt_km": 19119.960419099873,
        "timestamp": "2025-12-18T04:58:34.820707+00:00",
        "meta_object_name": "COSMOS 2522 (752)",
        "meta_object_id": "2017-055A",
        "meta_epoch": "2025-12-16T02:41:16.915776",
        "meta_mean_motion": 2.13102063,
        "meta_eccentricity": 0.00063883,
        "meta_inclination": 64.0761,
        "meta_ra_of_asc_node": 198.1142,
        "meta_arg_of_pericenter": 224.0896,
        "meta_mean_anomaly": 135.9399,
        "meta_ephemeris_type": 0,
        "meta_classification_type": "U",
        "meta_norad_cat_id": 42939,
        "meta_element_set_no": 999,
        "meta_rev_at_epoch": 6407,
        "meta_bstar": 0,
        "meta_mean_motion_dot": 1.09e-06,
        "meta_mean_motion_ddot": 0,
        "tle_line1": "1 42939U 17055A   25350.11200134  .00000109  00000+0  00000+0 0  9990",
        "tle_line2": "2 42939  64.0761 198.1142 0006388 224.0896 135.9399  2.13102063 64079"
      },
      "geometry": {
        "type": "Point",
        "coordinates": [
          12.47420403348192,
          11.287033867131546
        ]
      }
    },
    {
      "type": "Feature",
      "properties": {
        "norad_id": 42965,
        "name": "QZS-4 (QZSS/PRN 195)",
        "group": "gnss",
        "lat": -25.65365876762244,
        "lon": -48.83921791471571,
        "alt_km": 33470.30331930242,
        "timestamp": "2025-12-18T04:58:34.820720+00:00",
        "meta_object_name": "QZS-4 (QZSS/PRN 195)",
        "meta_object_id": "2017-062A",
        "meta_epoch": "2025-12-17T20:46:45.234048",
        "meta_mean_motion": 1.00251746,
        "meta_eccentricity": 0.07515485,
        "meta_inclination": 40.2233,
        "meta_ra_of_asc_node": 345.8056,
        "meta_arg_of_pericenter": 271.6564,
        "meta_mean_anomaly": 276.9432,
        "meta_ephemeris_type": 0,
        "meta_classification_type": "U",
        "meta_norad_cat_id": 42965,
        "meta_element_set_no": 999,
        "meta_rev_at_epoch": 2998,
        "meta_bstar": 0,
        "meta_mean_motion_dot": -3.41e-06,
        "meta_mean_motion_ddot": 0,
        "tle_line1": "1 42965U 17062A   25351.86580132 -.00000341  00000+0  00000+0 0  9998",
        "tle_line2": "2 42965  40.2233 345.8056 0751548 271.6564 276.9432  1.00251746 29981"
      },
      "geometry": {
        "type": "Point",
        "coordinates": [
          -48.83921791471571,
          -25.65365876762244
        ]
      }
    },
    {
      "type": "Feature",
      "properties": {
        "norad_id": 43001,
        "name": "BEIDOU-3 M1 (C19)",
        "group": "gnss",
        "lat": 15.704038546897898,
        "lon": 79.76818011746732,
        "alt_km": 21520.01741576765,
        "timestamp": "2025-12-18T04:58:34.820731+00:00",
        "meta_object_name": "BEIDOU-3 M1 (C19)",
        "meta_object_id": "2017-069A",
        "meta_epoch": "2025-12-17T02:31:31.300896",
        "meta_mean_motion": 1.86231373,
        "meta_eccentricity": 0.00093891,
        "meta_inclination": 56.5309,
        "meta_ra_of_asc_node": 69.0894,
        "meta_arg_of_pericenter": 302.653,
        "meta_mean_anomaly": 57.2803,
        "meta_ephemeris_type": 0,
        "meta_classification_type": "U",
        "meta_norad_cat_id": 43001,
        "meta_element_set_no": 999,
        "meta_rev_at_epoch": 5521,
        "meta_bstar": 0,
        "meta_mean_motion_dot": -7.5e-07,
        "meta_mean_motion_ddot": 0,
        "tle_line1": "1 43001U 17069A   25351.10522339 -.00000075  00000+0  00000+0 0  9993",
        "tle_line2": "2 43001  56.5309  69.0894 0009389 302.6530  57.2803  1.86231373 55214"
      },
      "geometry": {
        "type": "Point",
        "coordinates": [
          79.76818011746732,
          15.704038546897898
        ]
      }
    },
    {
      "type": "Feature",
      "properties": {
        "norad_id": 43002,
        "name": "BEIDOU-3 M2 (C20)",
        "group": "gnss",
        "lat": 46.440967678423966,
        "lon": 113.09530451984307,
        "alt_km": 21522.294803110362,
        "timestamp": "2025-12-18T04:58:34.820746+00:00",
        "meta_object_name": "BEIDOU-3 M2 (C20)",
        "meta_object_id": "2017-069B",
        "meta_epoch": "2025-12-17T13:55:59.807712",
        "meta_mean_motion": 1.86230965,
        "meta_eccentricity": 0.00064552,
        "meta_inclination": 56.531,
        "meta_ra_of_asc_node": 69.1097,
        "meta_arg_of_pericenter": 330.9303,
        "meta_mean_anomaly": 29.0595,
        "meta_ephemeris_type": 0,
        "meta_classification_type": "U",
        "meta_norad_cat_id": 43002,
        "meta_element_set_no": 999,
        "meta_rev_at_epoch": 5521,
        "meta_bstar": 0,
        "meta_mean_motion_dot": -7.1e-07,
        "meta_mean_motion_ddot": 0,
        "tle_line1": "1 43002U 17069B   25351.58055333 -.00000071  00000+0  00000+0 0  9997",
        "tle_line2": "2 43002  56.5310  69.1097 0006455 330.9303  29.0595  1.86230965 55217"
      },
      "geometry": {
        "type": "Point",
        "coordinates": [
          113.09530451984307,
          46.440967678423966
        ]
      }
    },
    {
      "type": "Feature",
      "properties": {
        "norad_id": 43055,
        "name": "GSAT0215 (GALILEO 19)",
        "group": "gnss",
        "lat": -54.99329285746264,
        "lon": 142.32461068148095,
        "alt_km": 23226.709511633642,
        "timestamp": "2025-12-18T04:58:34.820757+00:00",
        "meta_object_name": "GSAT0215 (GALILEO 19)",
        "meta_object_id": "2017-079A",
        "meta_epoch": "2025-12-17T04:12:33.509376",
        "meta_mean_motion": 1.70474116,
        "meta_eccentricity": 0.00012477,
        "meta_inclination": 55.1286,
        "meta_ra_of_asc_node": 226.5156,
        "meta_arg_of_pericenter": 341.6592,
        "meta_mean_anomaly": 18.4365,
        "meta_ephemeris_type": 0,
        "meta_classification_type": "U",
        "meta_norad_cat_id": 43055,
        "meta_element_set_no": 999,
        "meta_rev_at_epoch": 4988,
        "meta_bstar": 0,
        "meta_mean_motion_dot": 5.5e-07,
        "meta_mean_motion_ddot": 0,
        "tle_line1": "1 43055U 17079A   25351.17538784  .00000055  00000+0  00000+0 0  9998",
        "tle_line2": "2 43055  55.1286 226.5156 0001247 341.6592  18.4365  1.70474116 49884"
      },
      "geometry": {
        "type": "Point",
        "coordinates": [
          142.32461068148095,
          -54.99329285746264
        ]
      }
    },
    {
      "type": "Feature",
      "properties": {
        "norad_id": 43056,
        "name": "GSAT0216 (GALILEO 20)",
        "group": "gnss",
        "lat": 54.86948159264678,
        "lon": -35.49902574497726,
        "alt_km": 23220.617414838613,
        "timestamp": "2025-12-18T04:58:34.820770+00:00",
        "meta_object_name": "GSAT0216 (GALILEO 20)",
        "meta_object_id": "2017-079B",
        "meta_epoch": "2025-12-16T21:07:19.515072",
        "meta_mean_motion": 1.70474167,
        "meta_eccentricity": 0.00024195,
        "meta_inclination": 55.129,
        "meta_ra_of_asc_node": 226.5236,
        "meta_arg_of_pericenter": 322.2527,
        "meta_mean_anomaly": 37.829,
        "meta_ephemeris_type": 0,
        "meta_classification_type": "U",
        "meta_norad_cat_id": 43056,
        "meta_element_set_no": 999,
        "meta_rev_at_epoch": 4989,
        "meta_bstar": 0,
        "meta_mean_motion_dot": 5.3e-07,
        "meta_mean_motion_ddot": 0,
        "tle_line1": "1 43056U 17079B   25350.88008698  .00000053  00000+0  00000+0 0  9990",
        "tle_line2": "2 43056  55.1290 226.5236 0002419 322.2527  37.8290  1.70474167 49893"
      },
      "geometry": {
        "type": "Point",
        "coordinates": [
          -35.49902574497726,
          54.86948159264678
        ]
      }
    }
  ]
}